INTELSAT 902 (IS-902)   
1 26900U 01039A   26167.53238604 -.00000289  00000+0  00000+0 0  9991
2 26900   6.1158  71.7912 0004343  10.1686 324.3973  1.00272336 90681
INTELSAT 904 (IS-904)   
1 27380U 02007A   26168.08681490 -.00000233  00000+0  00000+0 0  9995
2 27380   6.9204  69.1859 0006491   5.2636 190.6543  1.00270537 51765
DIRECTV 5 (TEMPO 1)     
1 27426U 02023A   26167.62249932 -.00000062  00000+0  00000+0 0  9994
2 27426   4.8769  75.3171 0003286  24.4864 279.0813  1.00271599 88110
INTELSAT 905 (IS-905)   
1 27438U 02027A   26168.46735744  .00000086  00000+0  00000+0 0  9990
2 27438   6.7549  69.7976 0003822  21.0131 205.9384  1.00271523 51361
GALAXY 3C (G-3C)        
1 27445U 02030A   26168.32405734 -.00000159  00000+0  00000+0 0  9992
2 27445   3.7327  77.9765 0001583  31.2786 178.1332  1.00270983 46499
INTELSAT 906 (IS-906)   
1 27513U 02041A   26168.19955597  .00000005  00000+0  00000+0 0  9991
2 27513   5.8026  72.9224 0004588   7.1733 321.3499  1.00272962 87020
GALAXY 13 (HORIZONS-1)  
1 27954U 03044A   26168.46137013  .00000127  00000+0  00000+0 0  9994
2 27954   1.4199  83.8624 0002251 353.9976 203.9350  1.00271144 46570
INTELSAT 10-02          
1 28358U 04022A   26167.66137045 -.00000013  00000+0  00000+0 0  9991
2 28358   0.0133 313.0240 0000200 252.2268 296.7595  1.00271868 80551
DIRECTV 8               
1 28659U 05019A   26168.18064308  .00000000  00000+0  00000+0 0  9996
2 28659   0.0204   1.6232 0002872  91.7781 118.0221  1.00271003 77074
GALAXY 28 (G-28)        
1 28702U 05022A   26167.75083035 -.00000205  00000+0  00000+0 0  9997
2 28702   3.2974  78.9402 0002873   5.2261  64.0630  1.00271160 51971
GALAXY 16 (G-16)        
1 29236U 06023A   26168.27287933 -.00000131  00000+0  00000+0 0  9991
2 29236   0.0168 174.0083 0002433 269.1347 181.6190  1.00271451 72978
DIRECTV 9S              
1 29494U 06043A   26167.66477590 -.00000117  00000+0  00000+0 0  9995
2 29494   2.4200  80.9079 0004869  12.4612 309.6861  1.00270804 51375
GALAXY 17 (G-17)        
1 31307U 07016B   26168.32405734 -.00000212  00000+0  00000+0 0  9993
2 31307   2.9731  79.8992 0004591  17.5190 199.8082  1.00271894 69806
INTELSAT 11 (IS-11)     
1 32253U 07044B   26167.78142797 -.00000253  00000+0  00000+0 0  9996
2 32253   3.5649  78.6734 0002326  90.5395 144.7990  0.99050968 68445
HORIZONS-2              
1 32388U 07063B   26168.40600354 -.00000259  00000+0  00000+0 0  9990
2 32388   2.6033  80.6226 0003766   2.6053 254.7785  1.00268395 67816
DIRECTV 11              
1 32729U 08013A   26168.27287885 -.00000130  00000+0  00000+0 0  9998
2 32729   0.0088 278.6572 0000471  94.6342 251.2998  1.00271552 45590
GALAXY 18 (G-18)        
1 32951U 08024A   26168.39307475  .00000021  00000+0  00000+0 0  9996
2 32951   0.0147  34.9039 0002737  51.9516 197.3015  1.00272458 45855
INTELSAT 25 (IS-25)     
1 33153U 08034A   26167.78056131 -.00000230  00000+0  00000+0 0  9997
2 33153   2.7093  80.3763 0003288  60.4084 168.7264  0.99034973 65681
GALAXY 19 (G-19)        
1 33376U 08045A   26168.37972438 -.00000143  00000+0  00000+0 0  9992
2 33376   0.0357 264.1139 0002461 185.9298 215.2964  1.00271204 64905
FM-5                    
1 35493U 09034A   26168.34557808 -.00000204  00000+0  00000+0 0  9998
2 35493   0.0195 295.3044 0000869   7.9581   0.5852  1.00269074 46640
INTELSAT 14 (IS-14)     
1 36097U 09064A   26168.31432249 -.00000278  00000+0  00000+0 0  9991
2 36097   0.0161 302.6192 0002204 137.6371 253.4721  1.00270025 60607
INTELSAT 15 (IS-15)     
1 36106U 09067A   26167.95442034 -.00000188  00000+0  00000+0 0  9997
2 36106   0.0121 311.4719 0002046 137.7052 244.7718  1.00270326 41228
DIRECTV 12              
1 36131U 09075A   26168.32850906 -.00000108  00000+0  00000+0 0  9999
2 36131   0.0140 115.9690 0000445 281.2842 243.8769  1.00271807 46557
INTELSAT 16 (IS-16)     
1 36397U 10006A   26168.40600354 -.00000249  00000+0  00000+0 0  9994
2 36397   0.0152 312.2546 0001922 142.8394 240.5191  1.00276128 59650
XM-5                    
1 37185U 10053A   26167.73323693 -.00000025  00000+0  00000+0 0  9997
2 37185   0.0647 272.9687 0002954 288.9516 211.8427  1.00269128 57470
INTELSAT 17 (IS-17)     
1 37238U 10065B   26167.98305340 -.00000005  00000+0  00000+0 0  9993
2 37238   0.0057 305.4017 0002607 150.5404 229.1957  1.00271618 53246
INTELSAT 28 (IS-28)     
1 37392U 11016A   26167.74987700 -.00000229  00000+0  00000+0 0  9999
2 37392   1.8056  82.6255 0003610   6.9956  53.6278  1.00269732 53288
INTELSAT 18 (IS-18)     
1 37834U 11056A   26167.72049688  .00000050  00000+0  00000+0 0  9997
2 37834   0.0222 288.1834 0001594 156.3306 259.8456  1.00270842 53809
INTELSAT 22 (IS-22)     
1 38098U 12011A   26168.19955597 -.00000063  00000+0  00000+0 0  9994
2 38098   0.0129  75.8665 0001526  22.4487 311.0792  1.00272307  7181
INTELSAT 19 (IS-19)     
1 38356U 12030A   26168.41989110 -.00000061  00000+0  00000+0 0  9993
2 38356   0.0176 351.5563 0002873 103.4012 127.8696  1.00271162 50453
INTELSAT 20 (IS-20)     
1 38740U 12043A   26167.94447006 -.00000027  00000+0  00000+0 0  9996
2 38740   0.0215  79.6898 0001930  97.6903 136.3348  1.00271141 50747
